SZ-21 MODULE            
1 66515U 25246C   26065.50767940  .00041950  00000+0  36494-3 0  9996
2 66515  41.4735 222.9439 0001433 292.6372  67.4317 15.68252686 17579
SHENZHOU-22             
1 66645U 25272A   26065.83578792  .00025906  00000+0  30829-3 0  9999
2 66645  41.4663 225.5243 0006950 255.9346 104.0720 15.60495557268759
SOYUZ-MS 28             
1 66664U 25275A   26065.54469341  .00009332  00000+0  18044-3 0  9990
2 66664  51.6317  87.9051 0008117 163.3368 196.7888 15.48477653554528
DUPLEX                  
1 66906U 98067XS  26065.43931271  .00032127  00000+0  45868-3 0  9994
2 66906  51.6289  85.7046 0002177  98.7594 261.3644 15.55966204 14621
ISS OBJECT XT           
1 66907U 98067XT  26065.27003484  .00153072  00000+0  13312-2 0  9994
2 66907  51.6248  83.0631 0004674  56.5604 303.5839 15.68035860 14642
ISS OBJECT XU           
1 66908U 98067XU  26065.33220126  .00152767  00000+0  13221-2 0  9995
2 66908  51.6249  82.7244 0004715  58.9313 301.2145 15.68155385 14650
SILVERSAT               
1 66909U 98067XV  26065.27564600  .00189452  00000+0  14661-2 0  9997
2 66909  51.6242  82.3461 0005530  54.5981 305.5533 15.70734240 14654
ISS OBJECT XW           
1 66910U 98067XW  26065.45484626  .00136808  00000+0  12172-2 0  9990
2 66910  51.6239  82.0383 0005009  67.5902 292.5625 15.67532901 14675
ISS OBJECT XX           
1 66911U 98067XX  26065.40607185  .00240114  00000+0  16386-2 0  9990
2 66911  51.6211  80.9498 0007025  63.2110 296.9607 15.73534846 14679
ISS OBJECT XY           
1 66912U 98067XY  26065.44936360  .00091647  00000+0  98520-3 0  9991
2 66912  51.6268  83.5178 0003032  70.8849 289.2473 15.62981143 14640
ISS OBJECT XZ           
1 67683U 98067XZ  26065.44303726  .00040277  00000+0  67173-3 0  9994
2 67683  51.6308  87.9775 0009459 174.9626 185.1460 15.51523335  4282
GXIBA-1                 
1 67684U 98067YA  26065.35635560  .00076870  00000+0  11728-2 0  9991
2 67684  51.6296  88.1497 0010932 164.4811 195.6517 15.53698977  4276
CORAL                   
1 67685U 98067YB  26065.37492343  .00044090  00000+0  72551-3 0  9995
2 67685  51.6303  88.2731 0011331 171.0094 189.1100 15.51836923  4278
ISS OBJECT YC           
1 67686U 98067YC  26065.37047129  .00051923  00000+0  83919-3 0  9997
2 67686  51.6305  88.2448 0007826 138.7374 221.4209 15.52303119  4278
LEOPARD                 
1 67687U 98067YD  26065.44105420  .00044085  00000+0  73033-3 0  9992
2 67687  51.6311  87.9659 0007779 143.5641 216.5880 15.51685674  4205
ISS OBJECT YE           
1 67688U 98067YE  26065.37246683  .00047802  00000+0  77966-3 0  9991
2 67688  51.6307  88.2580 0007752 139.1868 220.9703 15.52085564  4195
